ONEWEB-0597             
1 54663U 22166X   24353.28830897  .00000020  00000+0  17229-4 0  9999
2 54663  87.9296 352.7395 0002002  84.9715 275.1648 13.21827283 99423
ONEWEB-0600             
1 54664U 22166Y   24353.27096505  .00000000  00000+0 -31244-4 0  9991
2 54664  87.9287 352.7727 0001882  84.5134 275.6214 13.21827474 99391
ONEWEB-0601             
1 54665U 22166Z   24353.26308092  .00000004  00000+0 -22306-4 0  9991
2 54665  87.9298 352.7523 0002250  87.0199 273.1192 13.21827208 99581
ONEWEB-0602             
1 54666U 22166AA  24353.30409204  .00000029  00000+0  38633-4 0  9990
2 54666  87.9295 352.7463 0001991  81.9131 278.2229 13.21823467 99436
ONEWEB-0603             
1 54667U 22166AB  24353.23311128  .00000003  00000+0 -23361-4 0  9995
2 54667  87.9272 352.7502 0002130  84.6348 275.5029 13.21828435 99351
ONEWEB-0604             
1 54668U 22166AC  24353.29619876  .00000067  00000+0  13026-3 0  9998
2 54668  87.9291 352.7191 0001923  81.0998 279.0354 13.21823429 99323
ONEWEB-0605             
1 54669U 22166AD  24353.28990500  .00000057  00000+0  10564-3 0  9997
2 54669  87.9290 352.7518 0002511  94.6604 265.4817 13.21825698 99394
ONEWEB-0606             
1 54670U 22166AE  24353.23628883 -.00000067  00000+0 -19321-3 0  9999
2 54670  87.9298 352.7631 0001636  92.7984 267.3337 13.21825888 99442
